[{"OBJECT_NAME":"STARLINK-30943","OBJECT_ID":"2023-183N","EPOCH":"2026-03-09T22:00:01.999584","MEAN_MOTION":15.26752373,"ECCENTRICITY":0.00014888,"INCLINATION":43.0005,"RA_OF_ASC_NODE":14.4403,"ARG_OF_PERICENTER":258.0683,"MEAN_ANOMALY":235.2056,"EPHEMERIS_TYPE":0,"CLASSIFICATION_TYPE":"U","NORAD_CAT_ID":58449,"ELEMENT_SET_NO":999,"REV_AT_EPOCH":578,"BSTAR":0.00020182866,"MEAN_MOTION_DOT":5.16e-5,"MEAN_MOTION_DDOT":0},{"OBJECT_NAME":"ELECTRON KICK STAGE R\/B","OBJECT_ID":"2024-077D","EPOCH":"2026-03-09T23:22:03.772128","MEAN_MOTION":14.57371822,"ECCENTRICITY":0.03475139,"INCLINATION":97.3266,"RA_OF_ASC_NODE":78.5056,"ARG_OF_PERICENTER":202.0113,"MEAN_ANOMALY":156.5853,"EPHEMERIS_TYPE":0,"CLASSIFICATION_TYPE":"U","NORAD_CAT_ID":59590,"ELEMENT_SET_NO":999,"REV_AT_EPOCH":9944,"BSTAR":0.00037103128,"MEAN_MOTION_DOT":3.845e-5,"MEAN_MOTION_DDOT":0}]
